0 COSMOS 2251 DEB
1 35026U 93036AGP 13281.04553361  .00000245  00000-0  65499-4 0  3519
2 35026 074.0484 059.3164 0086939 221.1828 255.7179 14.51580037236755
0 COSMOS 2251 DEB
1 35026U 93036AGP 13283.72373241  .00000216  00000-0  58763-4 0  3528
2 35026 074.0490 054.2770 0086828 215.5109 211.1109 14.51582922237143
0 COSMOS 2251 DEB
1 35026U 93036AGP 13287.04269911  .00000263  00000-0  69879-4 0  3538
2 35026 074.0496 048.0322 0086682 208.4792 274.9812 14.51584483237625
0 COSMOS 2251 DEB
1 35026U 93036AGP 13290.68374572  .00000333  00000-0  86388-4 0  3545
2 35026 074.0498 041.1823 0086561 200.7549 221.9810 14.51587445238147
0 COSMOS 2251 DEB
1 35026U 93036AGP 13293.64758368  .00000342  00000-0  88484-4 0  3553
2 35026 074.0497 035.6064 0086415 194.4488 230.1387 14.51589528238572
